[{"OBJECT_NAME":"STARLINK-32729","OBJECT_ID":"2025-003L","EPOCH":"2026-03-09T22:45:00.245664","MEAN_MOTION":15.27592049,"ECCENTRICITY":0.00027886,"INCLINATION":42.9976,"RA_OF_ASC_NODE":287.2827,"ARG_OF_PERICENTER":244.6086,"MEAN_ANOMALY":115.4477,"EPHEMERIS_TYPE":0,"CLASSIFICATION_TYPE":"U","NORAD_CAT_ID":62497,"ELEMENT_SET_NO":999,"REV_AT_EPOCH":6671,"BSTAR":0.0011867832,"MEAN_MOTION_DOT":0.00032554,"MEAN_MOTION_DDOT":0},{"OBJECT_NAME":"EDISON-1","OBJECT_ID":"2025-009B","EPOCH":"2026-03-09T19:16:13.822464","MEAN_MOTION":15.29042904,"ECCENTRICITY":0.00043285,"INCLINATION":97.4042,"RA_OF_ASC_NODE":151.6286,"ARG_OF_PERICENTER":306.4185,"MEAN_ANOMALY":53.6655,"EPHEMERIS_TYPE":0,"CLASSIFICATION_TYPE":"U","NORAD_CAT_ID":62610,"ELEMENT_SET_NO":999,"REV_AT_EPOCH":6375,"BSTAR":0.00052814963,"MEAN_MOTION_DOT":0.00014835,"MEAN_MOTION_DDOT":0}]
